{"fetched_at":"2026-07-18T06:27:45.816Z","source":"https://celestrak.org/NORAD/elements/gp.php?GROUP=oneweb&FORMAT=JSON","constellation":"oneweb","records":[{"OBJECT_NAME":"ONEWEB-0435","OBJECT_ID":"2022-012L","EPOCH":"2026-07-17T21:22:28.921728","CLASSIFICATION_TYPE":"U","MEAN_MOTION":13.10379474,"ECCENTRICITY":0.00019181,"INCLINATION":87.8817,"RA_OF_ASC_NODE":30.1573,"ARG_OF_PERICENTER":98.0824,"MEAN_ANOMALY":262.0521,"EPHEMERIS_TYPE":0,"NORAD_CAT_ID":51632,"ELEMENT_SET_NO":999,"REV_AT_EPOCH":21333,"BSTAR":0.00054461006,"MEAN_MOTION_DOT":0.00000203,"MEAN_MOTION_DDOT":0},{"OBJECT_NAME":"ONEWEB-0436","OBJECT_ID":"2022-012M","EPOCH":"2026-07-17T21:22:12.595584","CLASSIFICATION_TYPE":"U","MEAN_MOTION":13.17647816,"ECCENTRICITY":0.0001937,"INCLINATION":87.9155,"RA_OF_ASC_NODE":359.7397,"ARG_OF_PERICENTER":99.4555,"MEAN_ANOMALY":260.6795,"EPHEMERIS_TYPE":0,"NORAD_CAT_ID":51633,"ELEMENT_SET_NO":999,"REV_AT_EPOCH":21772,"BSTAR":0.00013185056,"MEAN_MOTION_DOT":6.4e-7,"MEAN_MOTION_DDOT":0},{"OBJECT_NAME":"ONEWEB-0438","OBJECT_ID":"2022-012N","EPOCH":"2026-07-17T22:50:25.044864","CLASSIFICATION_TYPE":"U","MEAN_MOTION":13.10375291,"ECCENTRICITY":0.00017813,"INCLINATION":87.8815,"RA_OF_ASC_NODE":30.1493,"ARG_OF_PERICENTER":81.0625,"MEAN_ANOMALY":279.0704,"EPHEMERIS_TYPE":0,"NORAD_CAT_ID":51634,"ELEMENT_SET_NO":999,"REV_AT_EPOCH":21337,"BSTAR":-0.0021129033,"MEAN_MOTION_DOT":-0.00000725,"MEAN_MOTION_DDOT":0},{"OBJECT_NAME":"ONEWEB-0439","OBJECT_ID":"2022-012P","EPOCH":"2026-07-17T22:55:19.221312","CLASSIFICATION_TYPE":"U","MEAN_MOTION":13.10377176,"ECCENTRICITY":0.0001742,"INCLINATION":87.882,"RA_OF_ASC_NODE":30.1362,"ARG_OF_PERICENTER":86.9236,"MEAN_ANOMALY":273.209,"EPHEMERIS_TYPE":0,"NORAD_CAT_ID":51635,"ELEMENT_SET_NO":999,"REV_AT_EPOCH":21335,"BSTAR":-0.0012192985,"MEAN_MOTION_DOT":-0.00000413,"MEAN_MOTION_DDOT":0},{"OBJECT_NAME":"ONEWEB-0442","OBJECT_ID":"2022-012Q","EPOCH":"2026-07-17T21:11:16.913760","CLASSIFICATION_TYPE":"U","MEAN_MOTION":13.1765079,"ECCENTRICITY":0.00016548,"INCLINATION":87.9147,"RA_OF_ASC_NODE":359.7715,"ARG_OF_PERICENTER":75.0886,"MEAN_ANOMALY":285.0429,"EPHEMERIS_TYPE":0,"NORAD_CAT_ID":51636,"ELEMENT_SET_NO":999,"REV_AT_EPOCH":21771,"BSTAR":0.000064520623,"MEAN_MOTION_DOT":3.8e-7,"MEAN_MOTION_DDOT":0},{"OBJECT_NAME":"ONEWEB-0443","OBJECT_ID":"2022-012R","EPOCH":"2026-07-17T21:39:13.030560","CLASSIFICATION_TYPE":"U","MEAN_MOTION":13.17647621,"ECCENTRICITY":0.0001538,"INCLINATION":87.9149,"RA_OF_ASC_NODE":359.7687,"ARG_OF_PERICENTER":99.2941,"MEAN_ANOMALY":260.8365,"EPHEMERIS_TYPE":0,"NORAD_CAT_ID":51637,"ELEMENT_SET_NO":999,"REV_AT_EPOCH":21776,"BSTAR":0.000060064459,"MEAN_MOTION_DOT":3.6e-7,"MEAN_MOTION_DDOT":0},{"OBJECT_NAME":"ONEWEB-0444","OBJECT_ID":"2022-012S","EPOCH":"2026-07-17T11:40:55.034976","CLASSIFICATION_TYPE":"U","MEAN_MOTION":13.10374233,"ECCENTRICITY":0.0001663,"INCLINATION":87.8819,"RA_OF_ASC_NODE":30.2281,"ARG_OF_PERICENTER":91.3776,"MEAN_ANOMALY":268.7542,"EPHEMERIS_TYPE":0,"NORAD_CAT_ID":51638,"ELEMENT_SET_NO":999,"REV_AT_EPOCH":21330,"BSTAR":-0.0023401,"MEAN_MOTION_DOT":-0.00000804,"MEAN_MOTION_DDOT":0},{"OBJECT_NAME":"ONEWEB-0445","OBJECT_ID":"2022-012T","EPOCH":"2026-07-17T12:10:14.932128","CLASSIFICATION_TYPE":"U","MEAN_MOTION":13.10379897,"ECCENTRICITY":0.000193,"INCLINATION":87.8825,"RA_OF_ASC_NODE":30.2141,"ARG_OF_PERICENTER":86.1012,"MEAN_ANOMALY":274.0336,"EPHEMERIS_TYPE":0,"NORAD_CAT_ID":51639,"ELEMENT_SET_NO":999,"REV_AT_EPOCH":21331,"BSTAR":0.00068148,"MEAN_MOTION_DOT":0.00000251,"MEAN_MOTION_DDOT":0},{"OBJECT_NAME":"ONEWEB-0446","OBJECT_ID":"2022-012U","EPOCH":"2026-07-17T22:38:11.952960","CLASSIFICATION_TYPE":"U","MEAN_MOTION":13.10371669,"ECCENTRICITY":0.00021041,"INCLINATION":87.8816,"RA_OF_ASC_NODE":30.1542,"ARG_OF_PERICENTER":82.3713,"MEAN_ANOMALY":277.7653,"EPHEMERIS_TYPE":0,"NORAD_CAT_ID":51640,"ELEMENT_SET_NO":999,"REV_AT_EPOCH":21335,"BSTAR":-0.0019359652,"MEAN_MOTION_DOT":-0.00000663,"MEAN_MOTION_DDOT":0},{"OBJECT_NAME":"ONEWEB-0448","OBJECT_ID":"2022-012V","EPOCH":"2026-07-17T22:45:31.830048","CLASSIFICATION_TYPE":"U","MEAN_MOTION":13.10374638,"ECCENTRICITY":0.0001795,"INCLINATION":87.8815,"RA_OF_ASC_NODE":30.1486,"ARG_OF_PERICENTER":88.632,"MEAN_ANOMALY":271.5013,"EPHEMERIS_TYPE":0,"NORAD_CAT_ID":51641,"ELEMENT_SET_NO":999,"REV_AT_EPOCH":21332,"BSTAR":-0.0024425194,"MEAN_MOTION_DOT":-0.0000084,"MEAN_MOTION_DDOT":0},{"OBJECT_NAME":"ONEWEB-0449","OBJECT_ID":"2022-012W","EPOCH":"2026-07-17T22:52:51.902400","CLASSIFICATION_TYPE":"U","MEAN_MOTION":13.10374747,"ECCENTRICITY":0.00017904,"INCLINATION":87.8822,"RA_OF_ASC_NODE":30.1351,"ARG_OF_PERICENTER":68.8552,"MEAN_ANOMALY":291.2767,"EPHEMERIS_TYPE":0,"NORAD_CAT_ID":51642,"ELEMENT_SET_NO":999,"REV_AT_EPOCH":21333,"BSTAR":-0.0017692527,"MEAN_MOTION_DOT":-0.00000605,"MEAN_MOTION_DDOT":0},{"OBJECT_NAME":"ONEWEB-0451","OBJECT_ID":"2022-012X","EPOCH":"2026-07-17T21:17:20.211072","CLASSIFICATION_TYPE":"U","MEAN_MOTION":13.17650598,"ECCENTRICITY":0.00016747,"INCLINATION":87.9158,"RA_OF_ASC_NODE":359.7387,"ARG_OF_PERICENTER":89.5908,"MEAN_ANOMALY":270.5416,"EPHEMERIS_TYPE":0,"NORAD_CAT_ID":51643,"ELEMENT_SET_NO":999,"REV_AT_EPOCH":21770,"BSTAR":-0.00009635427,"MEAN_MOTION_DOT":-2.5e-7,"MEAN_MOTION_DDOT":0},{"OBJECT_NAME":"ONEWEB-0452","OBJECT_ID":"2022-012Y","EPOCH":"2026-07-17T21:14:55.278528","CLASSIFICATION_TYPE":"U","MEAN_MOTION":13.17647216,"ECCENTRICITY":0.00015709,"INCLINATION":87.9147,"RA_OF_ASC_NODE":359.7731,"ARG_OF_PERICENTER":93.0007,"MEAN_ANOMALY":267.1304,"EPHEMERIS_TYPE":0,"NORAD_CAT_ID":51644,"ELEMENT_SET_NO":999,"REV_AT_EPOCH":21771,"BSTAR":0.000058017308,"MEAN_MOTION_DOT":3.5e-7,"MEAN_MOTION_DDOT":0},{"OBJECT_NAME":"ONEWEB-0456","OBJECT_ID":"2022-012AA","EPOCH":"2026-07-17T06:35:29.385024","CLASSIFICATION_TYPE":"U","MEAN_MOTION":13.10375412,"ECCENTRICITY":0.0001824,"INCLINATION":87.8832,"RA_OF_ASC_NODE":30.2596,"ARG_OF_PERICENTER":92.6186,"MEAN_ANOMALY":267.5151,"EPHEMERIS_TYPE":0,"NORAD_CAT_ID":51646,"ELEMENT_SET_NO":999,"REV_AT_EPOCH":21328,"BSTAR":0.000047723,"MEAN_MOTION_DOT":2.9e-7,"MEAN_MOTION_DDOT":0},{"OBJECT_NAME":"ONEWEB-0457","OBJECT_ID":"2022-012AB","EPOCH":"2026-07-17T22:33:07.303104","CLASSIFICATION_TYPE":"U","MEAN_MOTION":13.10371177,"ECCENTRICITY":0.00020632,"INCLINATION":87.8815,"RA_OF_ASC_NODE":30.1422,"ARG_OF_PERICENTER":78.945,"MEAN_ANOMALY":281.1909,"EPHEMERIS_TYPE":0,"NORAD_CAT_ID":51647,"ELEMENT_SET_NO":999,"REV_AT_EPOCH":21337,"BSTAR":-0.0017358262,"MEAN_MOTION_DOT":-0.00000593,"MEAN_MOTION_DDOT":0},{"OBJECT_NAME":"ONEWEB-0458","OBJECT_ID":"2022-012AC","EPOCH":"2026-07-17T19:23:58.020288","CLASSIFICATION_TYPE":"U","MEAN_MOTION":13.10376263,"ECCENTRICITY":0.00016204,"INCLINATION":87.8823,"RA_OF_ASC_NODE":30.1571,"ARG_OF_PERICENTER":87.3231,"MEAN_ANOMALY":272.8081,"EPHEMERIS_TYPE":0,"NORAD_CAT_ID":51648,"ELEMENT_SET_NO":999,"REV_AT_EPOCH":21331,"BSTAR":-0.00041786819,"MEAN_MOTION_DOT":-0.00000133,"MEAN_MOTION_DDOT":0}]}
